{"type": "FeatureCollection", "features": [{"type": "Feature", "properties": {"norad_id": 24946, "name": "IRIDIUM 33", "group": "iridium-33-debris", "lat": 59.02262990199586, "lon": -121.0355453460416, "alt_km": 765.9890457587999, "timestamp": "2025-12-20T09:36:02.033299+00:00", "meta": {"OBJECT_NAME": "IRIDIUM 33", "OBJECT_ID": "1997-051C", "EPOCH": "2025-12-19T11:17:03.474240", "MEAN_MOTION": 14.35041894, "ECCENTRICITY": 0.0007833, "INCLINATION": 86.3867, "RA_OF_ASC_NODE": 65.3967, "ARG_OF_PERICENTER": 177.5382, "MEAN_ANOMALY": 182.5855, "EPHEMERIS_TYPE": 0, "CLASSIFICATION_TYPE": "U", "NORAD_CAT_ID": 24946, "ELEMENT_SET_NO": 999, "REV_AT_EPOCH": 47931, "BSTAR": 8.767e-05, "MEAN_MOTION_DOT": 2.7e-06, "MEAN_MOTION_DDOT": 0}, "tle": {"line1": "1 24946U 97051C   25353.47017910  .00000270  00000+0  87670-4 0  9994", "line2": "2 24946  86.3867  65.3967 0007833 177.5382 182.5855 14.35041894479312"}}, "geometry": {"type": "Point", "coordinates": [-121.0355453460416, 59.02262990199586]}}, {"type": "Feature", "properties": {"norad_id": 33773, "name": "IRIDIUM 33 DEB", "group": "iridium-33-debris", "lat": -55.60898783557992, "lon": 52.06637069472026, "alt_km": 764.1628277362288, "timestamp": "2025-12-20T09:36:02.033343+00:00", "meta": {"OBJECT_NAME": "IRIDIUM 33 DEB", "OBJECT_ID": "1997-051L", "EPOCH": "2025-12-20T04:52:02.270784", "MEAN_MOTION": 14.43271484, "ECCENTRICITY": 0.0013069, "INCLINATION": 86.4002, "RA_OF_ASC_NODE": 57.4269, "ARG_OF_PERICENTER": 124.763, "MEAN_ANOMALY": 235.4803, "EPHEMERIS_TYPE": 0, "CLASSIFICATION_TYPE": "U", "NORAD_CAT_ID": 33773, "ELEMENT_SET_NO": 999, "REV_AT_EPOCH": 88455, "BSTAR": 0.00020332, "MEAN_MOTION_DOT": 7.05e-06, "MEAN_MOTION_DDOT": 0}, "tle": {"line1": "1 33773U 97051L   25354.20280406  .00000705  00000+0  20332-3 0  9990", "line2": "2 33773  86.4002  57.4269 0013069 124.7630 235.4803 14.43271484884553"}}, "geometry": {"type": "Point", "coordinates": [52.06637069472026, -55.60898783557992]}}, {"type": "Feature", "properties": {"norad_id": 33775, "name": "IRIDIUM 33 DEB", "group": "iridium-33-debris", "lat": -21.58422858063792, "lon": 44.84110318049003, "alt_km": 768.5367208450025, "timestamp": "2025-12-20T09:36:02.033359+00:00", "meta": {"OBJECT_NAME": "IRIDIUM 33 DEB", "OBJECT_ID": "1997-051N", "EPOCH": "2025-12-20T03:10:16.234176", "MEAN_MOTION": 14.41482945, "ECCENTRICITY": 0.0015002, "INCLINATION": 86.3628, "RA_OF_ASC_NODE": 46.3974, "ARG_OF_PERICENTER": 132.4513, "MEAN_ANOMALY": 256.8182, "EPHEMERIS_TYPE": 0, "CLASSIFICATION_TYPE": "U", "NORAD_CAT_ID": 33775, "ELEMENT_SET_NO": 999, "REV_AT_EPOCH": 88247, "BSTAR": 0.00021801, "MEAN_MOTION_DOT": 7.28e-06, "MEAN_MOTION_DDOT": 0}, "tle": {"line1": "1 33775U 97051N   25354.13213234  .00000728  00000+0  21801-3 0  9996", "line2": "2 33775  86.3628  46.3974 0015002 132.4513 256.8182 14.41482945882473"}}, "geometry": {"type": "Point", "coordinates": [44.84110318049003, -21.58422858063792]}}, {"type": "Feature", "properties": {"norad_id": 33776, "name": "IRIDIUM 33 DEB", "group": "iridium-33-debris", "lat": 60.706283725445594, "lon": -108.87770759436829, "alt_km": 751.0129773377839, "timestamp": "2025-12-20T09:36:02.033372+00:00", "meta": {"OBJECT_NAME": "IRIDIUM 33 DEB", "OBJECT_ID": "1997-051P", "EPOCH": "2025-12-20T04:19:37.589088", "MEAN_MOTION": 14.38247288, "ECCENTRICITY": 0.0015217, "INCLINATION": 86.4034, "RA_OF_ASC_NODE": 77.6514, "ARG_OF_PERICENTER": 166.4011, "MEAN_ANOMALY": 255.8053, "EPHEMERIS_TYPE": 0, "CLASSIFICATION_TYPE": "U", "NORAD_CAT_ID": 33776, "ELEMENT_SET_NO": 999, "REV_AT_EPOCH": 88189, "BSTAR": 0.00019844, "MEAN_MOTION_DOT": 6.23e-06, "MEAN_MOTION_DDOT": 0}, "tle": {"line1": "1 33776U 97051P   25354.18029617  .00000623  00000+0  19844-3 0  9990", "line2": "2 33776  86.4034  77.6514 0015217 166.4011 255.8053 14.38247288881897"}}, "geometry": {"type": "Point", "coordinates": [-108.87770759436829, 60.706283725445594]}}, {"type": "Feature", "properties": {"norad_id": 33777, "name": "IRIDIUM 33 DEB", "group": "iridium-33-debris", "lat": 25.845897318525754, "lon": 33.62963797267759, "alt_km": 710.4597830601124, "timestamp": "2025-12-20T09:36:02.033386+00:00", "meta": {"OBJECT_NAME": "IRIDIUM 33 DEB", "OBJECT_ID": "1997-051Q", "EPOCH": "2025-12-20T02:52:57.439200", "MEAN_MOTION": 14.55661313, "ECCENTRICITY": 0.0005746, "INCLINATION": 86.3776, "RA_OF_ASC_NODE": 31.9929, "ARG_OF_PERICENTER": 216.4794, "MEAN_ANOMALY": 143.6022, "EPHEMERIS_TYPE": 0, "CLASSIFICATION_TYPE": "U", "NORAD_CAT_ID": 33777, "ELEMENT_SET_NO": 999, "REV_AT_EPOCH": 88641, "BSTAR": 0.00052722, "MEAN_MOTION_DOT": 2.323e-05, "MEAN_MOTION_DDOT": 0}, "tle": {"line1": "1 33777U 97051Q   25354.12010925  .00002323  00000+0  52722-3 0  9998", "line2": "2 33777  86.3776  31.9929 0005746 216.4794 143.6022 14.55661313886414"}}, "geometry": {"type": "Point", "coordinates": [33.62963797267759, 25.845897318525754]}}, {"type": "Feature", "properties": {"norad_id": 33850, "name": "IRIDIUM 33 DEB", "group": "iridium-33-debris", "lat": -21.97852374701556, "lon": 25.40581102640384, "alt_km": 765.4316915351492, "timestamp": "2025-12-20T09:36:02.033398+00:00", "meta": {"OBJECT_NAME": "IRIDIUM 33 DEB", "OBJECT_ID": "1997-051T", "EPOCH": "2025-12-19T23:55:02.065152", "MEAN_MOTION": 14.42161662, "ECCENTRICITY": 0.0012905, "INCLINATION": 86.3411, "RA_OF_ASC_NODE": 27.0591, "ARG_OF_PERICENTER": 139.2842, "MEAN_ANOMALY": 265.4509, "EPHEMERIS_TYPE": 0, "CLASSIFICATION_TYPE": "U", "NORAD_CAT_ID": 33850, "ELEMENT_SET_NO": 999, "REV_AT_EPOCH": 88257, "BSTAR": 0.00025875, "MEAN_MOTION_DOT": 8.72e-06, "MEAN_MOTION_DDOT": 0}, "tle": {"line1": "1 33850U 97051T   25353.99655168  .00000872  00000+0  25875-3 0  9994", "line2": "2 33850  86.3411  27.0591 0012905 139.2842 265.4509 14.42161662882578"}}, "geometry": {"type": "Point", "coordinates": [25.40581102640384, -21.97852374701556]}}, {"type": "Feature", "properties": {"norad_id": 33853, "name": "IRIDIUM 33 DEB", "group": "iridium-33-debris", "lat": -76.31263405729656, "lon": -176.84976770356644, "alt_km": 795.6212988200878, "timestamp": "2025-12-20T09:36:02.033411+00:00", "meta": {"OBJECT_NAME": "IRIDIUM 33 DEB", "OBJECT_ID": "1997-051W", "EPOCH": "2025-12-20T00:03:55.806336", "MEAN_MOTION": 13.9909965, "ECCENTRICITY": 0.020721, "INCLINATION": 85.9996, "RA_OF_ASC_NODE": 346.6259, "ARG_OF_PERICENTER": 213.3945, "MEAN_ANOMALY": 201.9671, "EPHEMERIS_TYPE": 0, "CLASSIFICATION_TYPE": "U", "NORAD_CAT_ID": 33853, "ELEMENT_SET_NO": 999, "REV_AT_EPOCH": 85447, "BSTAR": 0.0010991, "MEAN_MOTION_DOT": 1.929e-05, "MEAN_MOTION_DDOT": 0}, "tle": {"line1": "1 33853U 97051W   25354.00272924  .00001929  00000+0  10991-2 0  9991", "line2": "2 33853  85.9996 346.6259 0207210 213.3945 201.9671 13.99099650854479"}}, "geometry": {"type": "Point", "coordinates": [-176.84976770356644, -76.31263405729656]}}, {"type": "Feature", "properties": {"norad_id": 33860, "name": "IRIDIUM 33 DEB", "group": "iridium-33-debris", "lat": -67.27935157728562, "lon": -147.46236515656898, "alt_km": 675.8827391079176, "timestamp": "2025-12-20T09:36:02.033424+00:00", "meta": {"OBJECT_NAME": "IRIDIUM 33 DEB", "OBJECT_ID": "1997-051AD", "EPOCH": "2025-12-20T03:52:13.321920", "MEAN_MOTION": 14.67450361, "ECCENTRICITY": 0.000653, "INCLINATION": 86.3822, "RA_OF_ASC_NODE": 23.9529, "ARG_OF_PERICENTER": 329.8946, "MEAN_ANOMALY": 97.1869, "EPHEMERIS_TYPE": 0, "CLASSIFICATION_TYPE": "U", "NORAD_CAT_ID": 33860, "ELEMENT_SET_NO": 999, "REV_AT_EPOCH": 88831, "BSTAR": 0.00071152, "MEAN_MOTION_DOT": 4.049e-05, "MEAN_MOTION_DDOT": 0}, "tle": {"line1": "1 33860U 97051AD  25354.16126530  .00004049  00000+0  71152-3 0  9990", "line2": "2 33860  86.3822  23.9529 0006530 329.8946  97.1869 14.67450361888311"}}, "geometry": {"type": "Point", "coordinates": [-147.46236515656898, -67.27935157728562]}}, {"type": "Feature", "properties": {"norad_id": 33862, "name": "IRIDIUM 33 DEB", "group": "iridium-33-debris", "lat": -19.313016325525062, "lon": 32.89105932985279, "alt_km": 650.4616738139712, "timestamp": "2025-12-20T09:36:02.033435+00:00", "meta": {"OBJECT_NAME": "IRIDIUM 33 DEB", "OBJECT_ID": "1997-051AF", "EPOCH": "2025-12-20T01:36:41.237280", "MEAN_MOTION": 14.69582079, "ECCENTRICITY": 0.0052731, "INCLINATION": 86.4082, "RA_OF_ASC_NODE": 34.2992, "ARG_OF_PERICENTER": 44.6523, "MEAN_ANOMALY": 336.7, "EPHEMERIS_TYPE": 0, "CLASSIFICATION_TYPE": "U", "NORAD_CAT_ID": 33862, "ELEMENT_SET_NO": 999, "REV_AT_EPOCH": 88931, "BSTAR": 0.00085474, "MEAN_MOTION_DOT": 5.209e-05, "MEAN_MOTION_DDOT": 0}, "tle": {"line1": "1 33862U 97051AF  25354.06714395  .00005209  00000+0  85474-3 0  9994", "line2": "2 33862  86.4082  34.2992 0052731  44.6523 336.7000 14.69582079889312"}}, "geometry": {"type": "Point", "coordinates": [32.89105932985279, -19.313016325525062]}}, {"type": "Feature", "properties": {"norad_id": 33866, "name": "IRIDIUM 33 DEB", "group": "iridium-33-debris", "lat": -86.1828425035215, "lon": -14.318362644171787, "alt_km": 869.7046888470422, "timestamp": "2025-12-20T09:36:02.033447+00:00", "meta": {"OBJECT_NAME": "IRIDIUM 33 DEB", "OBJECT_ID": "1997-051AK", "EPOCH": "2025-12-20T00:30:41.152032", "MEAN_MOTION": 14.25295275, "ECCENTRICITY": 0.0114975, "INCLINATION": 86.3001, "RA_OF_ASC_NODE": 89.9552, "ARG_OF_PERICENTER": 138.2993, "MEAN_ANOMALY": 347.795, "EPHEMERIS_TYPE": 0, "CLASSIFICATION_TYPE": "U", "NORAD_CAT_ID": 33866, "ELEMENT_SET_NO": 999, "REV_AT_EPOCH": 86914, "BSTAR": 0.00039194, "MEAN_MOTION_DOT": 1.008e-05, "MEAN_MOTION_DDOT": 0}, "tle": {"line1": "1 33866U 97051AK  25354.02130963  .00001008  00000+0  39194-3 0  9998", "line2": "2 33866  86.3001  89.9552 0114975 138.2993 347.7950 14.25295275869141"}}, "geometry": {"type": "Point", "coordinates": [-14.318362644171787, -86.1828425035215]}}]}